1 08820U 76039A   03223.54605375 -.00000003  00000-0  10000-3 0  9468
2 08820 109.8072 200.5414 0044640 289.5978  69.9767  6.38664329380595
